norad_id,name,regime,epoch,line1,line2,inclination,eccentricity,mean_motion,raan,arg_pericenter,mean_anomaly
28082,CHINASAT 20,EGO,08295.60720988,1 28082U 03052A   08295.60720988 -.00000305 +00000-0 +00000-0 0 05652\,2 28082 000.0400 352.7318 0003705 258.0535 096.3473 01.00274071018124,0.04,0.0003705,1.00274071,352.7318,258.0535,96.3473
28082,CHINASAT 20,EGO,08297.61842089,1 28082U 03052A   08297.61842089 -.00000305  00000-0  00000+0 0  5651\,2 28082 000.0421 001.5375 0003708 250.1976 101.4276 01.00273136 18146,0.0421,0.0003708,1.00273136,1.5375,250.1976,101.4276
28082,CHINASAT 20,EGO,08297.94131655,1 28082U 03052A   08297.94131655 -.00000304 +00000-0 +00000-0 0 05668\,2 28082 000.0432 006.5858 0003802 245.4282 217.7079 01.00272783018151,0.0432,0.0003802,1.00272783,6.5858,245.4282,217.7079
28082,CHINASAT 20,EGO,08299.60493002,1 28082U 03052A   08299.60493002 -.00000299  00000-0  00000+0 0  5662\,2 28082 000.0451 011.9725 0003856 240.9328 097.3609 01.00272130 18163,0.0451,0.0003856,1.0027213,11.9725,240.9328,97.3609
28082,CHINASAT 20,EGO,08300.97544917,1 28082U 03052A   08300.97544917 -.00000294  00000-0  00000+0 0  5673\,2 28082 000.0445 019.6050 0003974 237.0068 228.3922 01.00271658 18181,0.0445,0.0003974,1.00271658,19.605,237.0068,228.3922
28082,CHINASAT 20,EGO,08301.58920071,1 28082U 03052A   08301.58920071 -.00000292  00000-0  00000+0 0  5689\,2 28082 000.0481 024.5336 0003981 232.4620 089.5631 01.00271399 18180,0.0481,0.0003981,1.00271399,24.5336,232.462,89.5631
28082,CHINASAT 20,EGO,08302.60001597,1 28082U 03052A   08302.60001597 -.00000289  00000-0  00000+0 0  5693\,2 28082 000.0542 036.2209 0004094 227.4219 087.8015 01.00271050 18193,0.0542,0.0004094,1.0027105,36.2209,227.4219,87.8015
28082,CHINASAT 20,EGO,08303.61507939,1 28082U 03052A   08303.61507939 -.00000287  00000-0  00000+0 0  5706\,2 28082 000.0635 037.0341 0004148 227.6354 093.1964 01.00270854 18200,0.0635,0.0004148,1.00270854,37.0341,227.6354,93.1964
28082,CHINASAT 20,EGO,08303.74355435,1 28082U 03052A   08303.74355435 -.00000286  00000-0  00000+0 0  5712\,2 28082 000.0628 029.7937 0004097 234.5204 139.9298 01.00270818 18215,0.0628,0.0004097,1.00270818,29.7937,234.5204,139.9298
28082,CHINASAT 20,EGO,08304.97668256,1 28082U 03052A   08304.97668256 -.00000285  00000-0  00000+0 0  5726\,2 28082 000.0593 025.9815 0003734 231.0509 232.3528 01.00270164 18225,0.0593,0.0003734,1.00270164,25.9815,231.0509,232.3528
28082,CHINASAT 20,EGO,08306.25128324,1 28082U 03052A   08306.25128324 -.00000284  00000-0  00000+0 0  5736\,2 28082 000.0491 031.1541 0003807 225.5441 332.7913 01.00269671 18236,0.0491,0.0003807,1.00269671,31.1541,225.5441,332.7913
28082,CHINASAT 20,EGO,08306.73046466,1 28082U 03052A   08306.73046466 -.00000283  00000-0  00000+0 0  5745\,2 28082 000.0607 030.3019 0003872 226.9444 145.2182 01.00269525 18240,0.0607,0.0003872,1.00269525,30.3019,226.9444,145.2182
28082,CHINASAT 20,EGO,08307.66830832,1 28082U 03052A   08307.66830832 -.00000283  00000-0  00000+0 0  5757\,2 28082 000.0526 035.1750 0003917 222.8045 123.0254 01.00269175 18253,0.0526,0.0003917,1.00269175,35.175,222.8045,123.0254
28082,CHINASAT 20,EGO,08309.63588586,1 28082U 03052A   08309.63588586 -.00000282  00000-0  00000+0 0  5762\,2 28082 000.0552 050.8430 0004071 210.4187 109.9985 01.00268984 18276,0.0552,0.0004071,1.00268984,50.843,210.4187,109.9985
28082,CHINASAT 20,EGO,08309.74951635,1 28082U 03052A   08309.74951635 -.00000282  00000-0  00000+0 0  5774\,2 28082 000.0629 043.5406 0004043 216.8698 151.8609 01.00268430 18274,0.0629,0.0004043,1.0026843,43.5406,216.8698,151.8609
28082,CHINASAT 20,EGO,08310.64744758,1 28082U 03052A   08310.64744758 -.00000281  00000-0  00000+0 0  5781\,2 28082 000.0565 050.7696 0004073 210.5454 115.0935 01.00268563 18280,0.0565,0.0004073,1.00268563,50.7696,210.5454,115.0935
28082,CHINASAT 20,EGO,08310.78504106,1 28082U 03052A   08310.78504106 -.00000280  00000-0  00000+0 0  5797\,2 28082 000.0633 041.8351 0004061 218.6158 165.6185 01.00268051 18282,0.0633,0.0004061,1.00268051,41.8351,218.6158,165.6185
28082,CHINASAT 20,EGO,08312.27484169,1 28082U 03052A   08312.27484169 -.00000278  00000-0  00000+0 0  5796\,2 28082 000.0686 045.7303 0004217 213.5497 344.5660 01.00267492 18298,0.0686,0.0004217,1.00267492,45.7303,213.5497,344.566
28082,CHINASAT 20,EGO,08313.60022177,1 28082U 03052A   08313.60022177 -.00000277  00000-0  00000+0 0  5802\,2 28082 000.0581 056.8232 0004244 213.1440 092.3622 01.00275155 18314,0.0581,0.0004244,1.00275155,56.8232,213.144,92.3622
28082,CHINASAT 20,EGO,08315.56567499,1 28082U 03052A   08315.56567499 -.00000274  00000-0  00000+0 0  5829\,2 28082 000.0616 059.9537 0004508 208.2308 083.6598 01.00273889 18324,0.0616,0.0004508,1.00273889,59.9537,208.2308,83.6598
28082,CHINASAT 20,EGO,08316.49853764,1 28082U 03052A   08316.49853764 -.00000275 +00000-0 +00000-0 0 05838\,2 28082 000.0641 060.1213 0004324 204.2808 064.1995 01.00273264018337,0.0641,0.0004324,1.00273264,60.1213,204.2808,64.1995
28082,CHINASAT 20,EGO,08316.87463632,1 28082U 03052A   08316.87463632 -.00000275  00000-0  00000+0 0  5830\,2 28082 000.0654 060.5515 0004326 204.2859 199.5319 01.00273085 18343,0.0654,0.0004326,1.00273085,60.5515,204.2859,199.5319
28082,CHINASAT 20,EGO,08317.63160605,1 28082U 03052A   08317.63160605 -.00000276  00000-0  00000+0 0  5841\,2 28082 000.0680 063.7498 0004609 205.6804 108.1926 01.00272440 18351,0.068,0.0004609,1.0027244,63.7498,205.6804,108.1926
28082,CHINASAT 20,EGO,08317.96523588,1 28082U 03052A   08317.96523588 -.00000276  00000-0  00000+0 0  5851\,2 28082 000.0678 060.8535 0004374 204.3042 232.9057 01.00272592 18356,0.0678,0.0004374,1.00272592,60.8535,204.3042,232.9057
28082,CHINASAT 20,EGO,08319.68726319,1 28082U 03052A   08319.68726319 -.00000282  00000-0  00000+0 0  5867\,2 28082 000.0734 062.3201 0004564 206.4170 130.9499 01.00271574 18370,0.0734,0.0004564,1.00271574,62.3201,206.417,130.9499
28082,CHINASAT 20,EGO,08320.24776705,1 28082U 03052A   08320.24776705 -.00000284  00000-0  00000+0 0  5878\,2 28082 000.0754 062.6589 0004687 205.5108 333.8493 01.00271246 18375,0.0754,0.0004687,1.00271246,62.6589,205.5108,333.8493
28082,CHINASAT 20,EGO,08320.75820302,1 28082U 03052A   08320.75820302 -.00000287  00000-0  00000+0 0  5881\,2 28082 000.0752 061.0850 0004408 204.5638 160.6331 01.00271239 18385,0.0752,0.0004408,1.00271239,61.085,204.5638,160.6331
28082,CHINASAT 20,EGO,08321.85940122,1 28082U 03052A   08321.85940122 -.00000291  00000-0  00000+0 0  5892\,2 28082 000.0777 061.1468 0004552 208.1709 194.4752 01.00270772 18391,0.0777,0.0004552,1.00270772,61.1468,208.1709,194.4752
28082,CHINASAT 20,EGO,08322.99363350,1 28082U 03052A   08322.99363350 -.00000294  00000-0  00000+0 0  5905\,2 28082 000.0804 061.2129 0004688 209.6873 242.3257 01.00270239 18408,0.0804,0.0004688,1.00270239,61.2129,209.6873,242.3257
28082,CHINASAT 20,EGO,08324.21134815,1 28082U 03052A   08324.21134815 -.00000295  00000-0  00000+0 0  5916\,2 28082 000.0833 061.1985 0004712 212.5094 319.0856 01.00269715 18410,0.0833,0.0004712,1.00269715,61.1985,212.5094,319.0856
28082,CHINASAT 20,EGO,08324.61016206,1 28082U 03052A   08324.61016206 -.00000294  00000-0  00000+0 0  5923\,2 28082 000.0867 061.3126 0004766 211.4851 103.9536 01.00269201 18420,0.0867,0.0004766,1.00269201,61.3126,211.4851,103.9536
28082,CHINASAT 20,EGO,08324.74655718,1 28082U 03052A   08324.74655718 -.00000294  00000-0  00000+0 0  5935\,2 28082 000.0845 061.5187 0004675 211.5750 152.8981 01.00269471 18429,0.0845,0.0004675,1.00269471,61.5187,211.575,152.8981
28082,CHINASAT 20,EGO,08325.88571955,1 28082U 03052A   08325.88571955 -.00000292  00000-0  00000+0 0  5940\,2 28082 000.0871 062.0031 0004660 210.6600 204.5385 01.00268968 18434,0.0871,0.000466,1.00268968,62.0031,210.66,204.5385
28082,CHINASAT 20,EGO,08326.61602741,1 28082U 03052A   08326.61602741 -.00000290  00000-0  00000+0 0  5959\,2 28082 000.0913 064.9771 0004744 208.5313 107.3132 01.00268681 18446,0.0913,0.0004744,1.00268681,64.9771,208.5313,107.3132
28082,CHINASAT 20,EGO,08327.76325258,1 28082U 03052A   08327.76325258 -.00000286  00000-0  00000+0 0  5967\,2 28082 000.0914 063.3366 0004658 209.3989 162.2074 01.00268211 18457,0.0914,0.0004658,1.00268211,63.3366,209.3989,162.2074
28082,CHINASAT 20,EGO,08328.97547321,1 28082U 03052A   08328.97547321 -.00000282  00000-0  00000+0 0  5975\,2 28082 000.0962 066.0461 0004694 208.3868 238.0866 01.00267687 18469,0.0962,0.0004694,1.00267687,66.0461,208.3868,238.0866
28082,CHINASAT 20,EGO,08329.57730662,1 28082U 03052A   08329.57730662 -.00000280  00000-0  00000+0 0  5983\,2 28082 000.0975 067.5780 0004826 211.5134 090.6709 01.00267769 18472,0.0975,0.0004826,1.00267769,67.578,211.5134,90.6709
28082,CHINASAT 20,EGO,08330.62854824,1 28082U 03052A   08330.62854824 -.00000278  00000-0  00000+0 0  5996\,2 28082 000.0972 267.2994 0005422 017.1551 104.7875 01.00273532 18488,0.0972,0.0005422,1.00273532,267.2994,17.1551,104.7875
28082,CHINASAT 20,EGO,08331.59871867,1 28082U 03052A   08331.59871867 -.00000277  00000-0  00000+0 0  6001\,2 28082 000.0947 269.7127 0005297 014.1803 095.5772 01.00274028 18497,0.0947,0.0005297,1.00274028,269.7127,14.1803,95.5772
28082,CHINASAT 20,EGO,08332.75924954,1 28082U 03052A   08332.75924954 -.00000276  00000-0  00000+0 0  6016\,2 28082 000.0932 266.5381 0005203 016.8147 155.0639 01.00273828 18508,0.0932,0.0005203,1.00273828,266.5381,16.8147,155.0639
28082,CHINASAT 20,EGO,08334.66876581,1 28082U 03052A   08334.66876581 -.00000275  00000-0  00000+0 0  6020\,2 28082 000.0885 267.4717 0005448 020.3177 119.9411 01.00272865 18521,0.0885,0.0005448,1.00272865,267.4717,20.3177,119.9411
28082,CHINASAT 20,EGO,08335.93614090,1 28082U 03052A   08335.93614090 -.00000275  00000-0  00000+0 0  6037\,2 28082 000.0850 268.9110 0005416 018.3385 217.9898 01.00272374 18533,0.085,0.0005416,1.00272374,268.911,18.3385,217.9898
